NORAD_CAT_ID,OBJECT_NAME,OBJECT_TYPE,EPOCH,MEAN_MOTION,ECCENTRICITY,INCLINATION,RA_OF_ASC_NODE,ARG_OF_PERICENTER,MEAN_ANOMALY,BSTAR,MEAN_MOTION_DOT,MEAN_MOTION_DDOT,TLE_LINE0,TLE_LINE1,TLE_LINE2,SEMIMAJOR_AXIS,PERIOD,APOGEE,PERIGEE,DECAYED
56781.0,STARLINK-5989,PAYLOAD,2024-04-22 19:59:35,14.98321276,0.0002457,70.0007,273.8195,251.1879,108.9014,4.6766e-05,4.65e-06,0.0,0 STARLINK-5989,1 56781U 23078Q   24113.83304463  .00000465  00000-0  46766-4 0  9997,2 56781  70.0007 273.8195 0002457 251.1879 108.9014 14.98321276 50202,6950.22,96.108,573.793,570.377,0.0
56781.0,STARLINK-5989,PAYLOAD,2024-04-23 13:37:03,14.983238,0.0002603,70.0007,271.9673,247.0883,113.0002,4.3359e-05,4.24e-06,0.0,0 STARLINK-5989,1 56781U 23078Q   24114.56740468  .00000424  00000-0  43359-4 0  9997,2 56781  70.0007 271.9673 0002603 247.0883 113.0002 14.98323800 50056,6950.212,96.107,573.886,570.268,0.0
56781.0,STARLINK-5989,PAYLOAD,2024-04-23 20:01:35,14.98325604,0.0002622,70.001,271.2947,244.3943,115.6946,8.0781e-05,8.71e-06,0.0,0 STARLINK-5989,1 56781U 23078Q   24114.83444339  .00000871  00000-0  80781-4 0  9991,2 56781  70.0010 271.2947 0002622 244.3943 115.6946 14.98325604 50357,6950.206,96.107,573.894,570.249,0.0
56781.0,STARLINK-5989,PAYLOAD,2024-04-24 13:39:04,14.98327097,0.0002591,70.001,269.4428,246.3885,113.7002,5.9786e-05,6.2e-06,0.0,0 STARLINK-5989,1 56781U 23078Q   24115.56880411  .00000620  00000-0  59786-4 0  9990,2 56781  70.0010 269.4428 0002591 246.3885 113.7002 14.98327097 50206,6950.202,96.107,573.868,570.266,0.0
56781.0,STARLINK-5989,PAYLOAD,2024-04-24 20:03:37,14.98326143,0.000259,70.001,268.7695,257.1635,102.9235,6.8623e-05,7.26e-06,0.0,0 STARLINK-5989,1 56781U 23078Q   24115.83584577  .00000726  00000-0  68623-4 0  9991,2 56781  70.0010 268.7695 0002590 257.1635 102.9235 14.98326143 50508,6950.205,96.107,573.87,570.27,0.0
56781.0,STARLINK-5989,PAYLOAD,2024-04-25 13:41:05,14.98330736,0.000273,70.0008,266.9179,260.7589,99.3261,3.3882e-05,3.11e-06,0.0,0 STARLINK-5989,1 56781U 23078Q   24116.57020400  .00000311  00000-0  33882-4 0  9992,2 56781  70.0008 266.9179 0002730 260.7589  99.3261 14.98330736 50350,6950.191,96.107,573.953,570.158,0.0
56781.0,STARLINK-5989,PAYLOAD,2024-04-25 20:05:37,14.98335386,0.0002704,70.0012,266.2446,263.9606,96.1245,7.413e-05,7.92e-06,0.0,0 STARLINK-5989,1 56781U 23078Q   24116.83723996  .00000792  00000-0  74130-4 0  9995,2 56781  70.0012 266.2446 0002704 263.9606  96.1245 14.98335386 50657,6950.176,96.107,573.921,570.162,0.0
56781.0,STARLINK-5989,PAYLOAD,2024-04-26 13:43:06,14.98330182,0.0002506,70.0015,264.393,267.8597,92.2275,3.0205e-05,2.67e-06,0.0,0 STARLINK-5989,1 56781U 23078Q   24117.57160306  .00000267  00000-0  30205-4 0  9999,2 56781  70.0015 264.3930 0002506 267.8597  92.2275 14.98330182 50502,6950.192,96.107,573.799,570.316,0.0
56781.0,STARLINK-5989,PAYLOAD,2024-04-26 20:07:38,14.98334536,0.0002338,70.0017,263.7192,258.2234,101.8663,7.5382e-05,8.07e-06,0.0,0 STARLINK-5989,1 56781U 23078Q   24117.83863811  .00000807  00000-0  75382-4 0  9994,2 56781  70.0017 263.7192 0002338 258.2234 101.8663 14.98334536 50541,6950.179,96.107,573.669,570.419,0.0
56781.0,STARLINK-5989,PAYLOAD,2024-04-27 02:32:11,14.98333211,0.0002233,70.0024,263.0413,291.7867,68.3055,-7.0411e-06,-1.77e-06,0.0,0 STARLINK-5989,1 56781U 23078Q   24118.10568360 -.00000177  00000-0 -70411-5 0  9997,2 56781  70.0024 263.0413 0002233 291.7867  68.3055 14.98333211 50840,6950.183,96.107,573.6,570.496,0.0
56781.0,STARLINK-5989,PAYLOAD,2024-04-27 13:45:07,14.98327934,0.0002497,70.0012,261.8673,264.8514,95.236,-5.4052e-05,-7.38e-06,0.0,0 STARLINK-5989,1 56781U 23078Q   24118.57300512 -.00000738  00000-0 -54052-4 0  9996,2 56781  70.0012 261.8673 0002497 264.8514  95.2360 14.98327934 50655,6950.199,96.107,573.8,570.329,0.0
56781.0,STARLINK-5989,PAYLOAD,2024-04-27 18:33:31,14.98329515,0.0002535,70.0011,261.362,267.9292,92.1577,-4.9215e-05,-6.8e-06,0.0,0 STARLINK-5989,1 56781U 23078Q   24118.77328385 -.00000680  00000-0 -49215-4 0  9997,2 56781  70.0011 261.3620 0002535 267.9292  92.1577 14.98329515 50687,6950.194,96.107,573.821,570.298,0.0
56781.0,STARLINK-5989,PAYLOAD,2024-04-28 02:34:12,14.98330028,0.000256,70.0012,260.5194,277.5769,82.51,-0.00010901,-1.393e-05,0.0,0 STARLINK-5989,1 56781U 23078Q   24119.10708581 -.00001393  00000-0 -10901-3 0  9996,2 56781  70.0012 260.5194 0002560 277.5769  82.5100 14.98330028 50999,6950.193,96.107,573.837,570.279,0.0
56781.0,STARLINK-5989,PAYLOAD,2024-04-28 15:23:17,14.98323695,0.0002605,70.0006,259.1737,266.8669,93.2192,-7.4429e-05,-9.81e-06,0.0,0 STARLINK-5989,1 56781U 23078Q   24119.64116971 -.00000981  00000-0 -74429-4 0  9999,2 56781  70.0006 259.1737 0002605 266.8669  93.2192 14.98323695 50812,6950.212,96.107,573.888,570.267,0.0
56781.0,STARLINK-5989,PAYLOAD,2024-04-28 18:35:33,14.98321778,0.0002609,70.0008,258.8373,265.6533,94.4328,-8.0989e-05,-1.059e-05,0.0,0 STARLINK-5989,1 56781U 23078Q   24119.77469167 -.00001059  00000-0 -80989-4 0  9996,2 56781  70.0008 258.8373 0002609 265.6533  94.4328 14.98321778 51092,6950.218,96.108,573.897,570.27,0.0
56781.0,STARLINK-5989,PAYLOAD,2024-04-29 12:13:01,14.98327586,0.0002778,70.0006,256.9858,272.2665,87.8176,7.983e-05,8.6e-06,0.0,0 STARLINK-5989,1 56781U 23078Q   24120.50904506  .00000860  00000-0  79830-4 0  9990,2 56781  70.0006 256.9858 0002778 272.2665  87.8176 14.98327586 51207,6950.2,96.107,573.996,570.135,0.0
56781.0,STARLINK-5989,PAYLOAD,2024-04-29 13:49:09,14.98327296,0.0002787,70.0006,256.8174,272.2957,87.7883,7.6701e-05,8.22e-06,0.0,0 STARLINK-5989,1 56781U 23078Q   24120.57580545  .00000822  00000-0  76701-4 0  9992,2 56781  70.0006 256.8174 0002787 272.2957  87.7883 14.98327296 50954,6950.201,96.107,574.003,570.129,0.0
56781.0,STARLINK-5989,PAYLOAD,2024-04-29 18:37:33,14.98331845,0.0002877,70.0005,256.3122,272.114,87.969,6.3516e-05,6.65e-06,0.0,0 STARLINK-5989,1 56781U 23078Q   24120.77608267  .00000665  00000-0  63516-4 0  9991,2 56781  70.0005 256.3122 0002877 272.1140  87.9690 14.98331845 50980,6950.187,96.107,574.052,570.053,0.0
56781.0,STARLINK-5989,PAYLOAD,2024-04-30 13:51:10,14.98327234,0.0003047,70.0003,254.2914,272.5631,87.5179,0.00012659,1.418e-05,0.0,0 STARLINK-5989,1 56781U 23078Q   24121.57720339  .00001418  00000-0  12659-3 0  9993,2 56781  70.0003 254.2914 0003047 272.5631  87.5179 14.98327234 51103,6950.201,96.107,574.184,569.949,0.0
56781.0,STARLINK-5989,PAYLOAD,2024-04-30 18:39:34,14.9833178,0.0003057,70.0004,253.7859,271.3624,88.7184,0.00011063,1.227e-05,0.0,0 STARLINK-5989,1 56781U 23078Q   24121.77748052  .00001227  00000-0  11063-3 0  9993,2 56781  70.0004 253.7859 0003057 271.3624  88.7184 14.98331780 51397,6950.187,96.107,574.177,569.928,0.0
56781.0,STARLINK-5989,PAYLOAD,2024-05-01 02:40:14,14.98333645,0.0003054,70.0006,252.9443,271.3525,88.7284,7.6464e-05,8.2e-06,0.0,0 STARLINK-5989,1 56781U 23078Q   24122.11127943  .00000820  00000-0  76464-4 0  9997,2 56781  70.0006 252.9443 0003054 271.3525  88.7284 14.98333645 51186,6950.182,96.107,574.169,569.924,0.0
56781.0,STARLINK-5989,PAYLOAD,2024-05-01 15:29:18,14.98342349,0.0003101,70.0006,251.5979,271.769,88.3113,5.285e-05,5.38e-06,0.0,0 STARLINK-5989,1 56781U 23078Q   24122.64535167  .00000538  00000-0  52850-4 0  9995,2 56781  70.0006 251.5979 0003101 271.7690  88.3113 14.98342349 51521,6950.155,96.106,574.175,569.864,0.0
56781.0,STARLINK-5989,PAYLOAD,2024-05-02 10:42:55,14.9832787,0.0003244,70.0002,249.5783,271.6338,88.4449,-7.1123e-05,-9.42e-06,0.0,0 STARLINK-5989,1 56781U 23078Q   24123.44648125 -.00000942  00000-0 -71123-4 0  9998,2 56781  70.0002 249.5783 0003244 271.6338  88.4449 14.98327870 51641,6950.199,96.107,574.319,569.81,0.0
56781.0,STARLINK-5989,PAYLOAD,2024-05-02 13:55:12,14.98327417,0.0003246,70.0001,249.2417,271.5524,88.5263,-7.3716e-05,-9.72e-06,0.0,0 STARLINK-5989,1 56781U 23078Q   24123.58000162 -.00000972  00000-0 -73716-4 0  9999,2 56781  70.0001 249.2417 0003246 271.5524  88.5263 14.98327417 51405,6950.201,96.107,574.322,569.81,0.0
56781.0,STARLINK-5989,PAYLOAD,2024-05-02 18:43:35,14.98352445,0.0003196,69.9999,248.736,275.1756,84.9038,-0.00039758,-4.836e-05,0.0,0 STARLINK-5989,1 56781U 23078Q   24123.78027296 -.00004836  00000-0 -39758-3 0  9998,2 56781  69.9999 248.7360 0003196 275.1756  84.9038 14.98352445 51690,6950.123,96.106,574.21,569.767,0.0
56781.0,STARLINK-5989,PAYLOAD,2024-05-03 01:08:07,14.98336684,0.0003315,69.9999,248.0628,271.7595,88.3184,-2.638e-05,-4.08e-06,0.0,0 STARLINK-5989,1 56781U 23078Q   24124.04731323 -.00000408  00000-0 -26380-4 0  9990,2 56781  69.9999 248.0628 0003315 271.7595  88.3184 14.98336684 51738,6950.172,96.107,574.341,569.733,0.0
56781.0,STARLINK-5989,PAYLOAD,2024-05-03 12:21:03,14.98339856,0.0003292,69.9996,246.8845,272.0387,88.0395,9.0403e-06,1.5e-07,0.0,0 STARLINK-5989,1 56781U 23078Q   24124.51462799  .00000015  00000-0  90403-5 0  9990,2 56781  69.9996 246.8845 0003292 272.0387  88.0395 14.98339856 51543,6950.162,96.106,574.315,569.739,0.0
56781.0,STARLINK-5989,PAYLOAD,2024-05-03 17:09:27,14.98340913,0.0003202,69.9998,246.3792,274.317,85.7623,0.00013021,1.461e-05,0.0,0 STARLINK-5989,1 56781U 23078Q   24124.71490247  .00001461  00000-0  13021-3 0  9996,2 56781  69.9998 246.3792 0003202 274.3170  85.7623 14.98340913 51833,6950.159,96.106,574.25,569.799,0.0
56781.0,STARLINK-5989,PAYLOAD,2024-05-04 01:10:08,14.98331216,0.0003055,69.9999,245.5369,275.2984,84.7827,2.4878e-05,2.04e-06,0.0,0 STARLINK-5989,1 56781U 23078Q   24125.04871059  .00000204  00000-0  24878-4 0  9994,2 56781  69.9999 245.5369 0003055 275.2984  84.7827 14.98331216 51880,6950.189,96.107,574.177,569.931,0.0
56781.0,STARLINK-5989,PAYLOAD,2024-05-04 12:23:06,14.98309547,0.0002839,70.0008,244.3612,267.8256,92.2578,-0.00012634,-1.599e-05,0.0,0 STARLINK-5989,1 56781U 23078Q   24125.51605080 -.00001599  00000-0 -12634-3 0  9991,2 56781  70.0008 244.3612 0002839 267.8256  92.2578 14.98309547 51957,6950.256,96.108,574.094,570.148,0.0
